start=new Date('2022-04-29T00:00:00.000Z').valueOf();
sats=[{"GP_ID":"202217820","ELEMENT_SET_NO":"999","ECCENTRICITY":"0.00020640","ARG_OF_PERICENTER":"44.0230","MEAN_MOTION_DDOT":"0.0000000000000","BSTAR":"0.00002141100000","CLASSIFICATION_TYPE":"U","REF_FRAME":"TEME","CENTER_NAME":"EARTH","NORAD_CAT_ID":"47819","MEAN_MOTION_DOT":"0.00000037","PERIOD":"95.592","SEMIMAJOR_AXIS":"6925.353","RA_OF_ASC_NODE":"106.7701","REV_AT_EPOCH":"6395","INCLINATION":"53.0539","LAUNCH_DATE":"2021-03-11","MEAN_ELEMENT_THEORY":"SGP4","TLE_LINE2":"2 47819  53.0539 106.7701 0002064  44.0230 316.0923 15.06398390 63954","OBJECT_NAME":"STARLINK-2402","OBJECT_ID":"2021-018AJ","APOAPSIS":"548.648","MEAN_MOTION":"15.06398390","EPOCH":"2022-04-28T11:36:27.479232","SITE":"AFETR","DECAY_DATE":null,"RCS_SIZE":"LARGE","TLE_LINE1":"1 47819U 21018AJ  22118.48365138  .00000037  00000-0  21411-4 0  9996","EPHEMERIS_TYPE":"0","OBJECT_TYPE":"PAYLOAD","MEAN_ANOMALY":"316.0923","COUNTRY_CODE":"US","FILE":"3420061","TIME_SYSTEM":"UTC","PERIAPSIS":"545.789"},{"RA_OF_ASC_NODE":"115.6745","INCLINATION":"53.0525","REV_AT_EPOCH":"6345","SEMIMAJOR_AXIS":"6925.330","PERIOD":"95.592","MEAN_MOTION_DOT":"0.00005630","NORAD_CAT_ID":"47820","REF_FRAME":"TEME","CENTER_NAME":"EARTH","CLASSIFICATION_TYPE":"U","BSTAR":"0.00039652000000","MEAN_MOTION_DDOT":"0.0000000000000","ARG_OF_PERICENTER":"45.0188","ELEMENT_SET_NO":"999","ECCENTRICITY":"0.00019030","GP_ID":"202225197","RCS_SIZE":"LARGE","SITE":"AFETR","DECAY_DATE":null,"EPOCH":"2022-04-28T17:30:44.737344","APOAPSIS":"548.513","OBJECT_ID":"2021-018AK","MEAN_MOTION":"15.06405909","OBJECT_NAME":"STARLINK-2403","TLE_LINE2":"2 47820  53.0525 115.6745 0001903  45.0188 315.0955 15.06405909 63456","MEAN_ELEMENT_THEORY":"SGP4","LAUNCH_DATE":"2021-03-11","EPHEMERIS_TYPE":"0","TLE_LINE1":"1 47820U 21018AK  22118.72968446  .00005630  00000-0  39652-3 0  9995","TIME_SYSTEM":"UTC","PERIAPSIS":"545.878","FILE":"3420257","COUNTRY_CODE":"US","MEAN_ANOMALY":"315.0955","OBJECT_TYPE":"PAYLOAD"},{"PERIAPSIS":"545.962","TIME_SYSTEM":"UTC","FILE":"3420061","OBJECT_TYPE":"PAYLOAD","MEAN_ANOMALY":"297.8047","COUNTRY_CODE":"US","TLE_LINE1":"1 47821U 21018AL  22118.44216177  .00005304  00000-0  37463-3 0  9998","EPHEMERIS_TYPE":"0","TLE_LINE2":"2 47821  53.0530 106.9579 0001766  62.3121 297.8047 15.06409186 63884","OBJECT_NAME":"STARLINK-2406","MEAN_ELEMENT_THEORY":"SGP4","LAUNCH_DATE":"2021-03-11","DECAY_DATE":null,"SITE":"AFETR","EPOCH":"2022-04-28T10:36:42.776928","RCS_SIZE":"LARGE","APOAPSIS":"548.408","OBJECT_ID":"2021-018AL","MEAN_MOTION":"15.06409186","BSTAR":"0.00037463000000","MEAN_MOTION_DDOT":"0.0000000000000","CENTER_NAME":"EARTH","REF_FRAME":"TEME","CLASSIFICATION_TYPE":"U","ELEMENT_SET_NO":"999","ECCENTRICITY":"0.00017660","GP_ID":"202216322","ARG_OF_PERICENTER":"62.3121","INCLINATION":"53.0530","REV_AT_EPOCH":"6388","RA_OF_ASC_NODE":"106.9579","MEAN_MOTION_DOT":"0.00005304","NORAD_CAT_ID":"47821","SEMIMAJOR_AXIS":"6925.320","PERIOD":"95.592"},{"APOAPSIS":"548.624","MEAN_MOTION":"15.06414791","OBJECT_ID":"2021-018AM","EPOCH":"2022-04-28T17:14:48.619392","SITE":"AFETR","DECAY_DATE":null,"RCS_SIZE":"LARGE","LAUNCH_DATE":"2021-03-11","MEAN_ELEMENT_THEORY":"SGP4","TLE_LINE2":"2 47822  53.0557 115.7212 0002102  43.2738 316.8416 15.06414791 63456","OBJECT_NAME":"STARLINK-2407","NORAD_CAT_ID":"47822","MEAN_MOTION_DOT":"0.00002006","PERIOD":"95.591","SEMIMAJOR_AXIS":"6925.303","INCLINATION":"53.0557","RA_OF_ASC_NODE":"115.7212","REV_AT_EPOCH":"6345","GP_ID":"202223134","ECCENTRICITY":"0.00021020","ELEMENT_SET_NO":"999","ARG_OF_PERICENTER":"43.2738","MEAN_MOTION_DDOT":"0.0000000000000","BSTAR":"0.00015347000000","CLASSIFICATION_TYPE":"U","CENTER_NAME":"EARTH","REF_FRAME":"TEME","MEAN_ANOMALY":"316.8416","OBJECT_TYPE":"PAYLOAD","COUNTRY_CODE":"US","FILE":"3420170","PERIAPSIS":"545.713","TIME_SYSTEM":"UTC","EPHEMERIS_TYPE":"0","TLE_LINE1":"1 47822U 21018AM  22118.71861828  .00002006  00000-0  15347-3 0  9991"},{"ARG_OF_PERICENTER":"63.3924","ECCENTRICITY":"0.00018730","ELEMENT_SET_NO":"999","GP_ID":"202217320","CENTER_NAME":"EARTH","REF_FRAME":"TEME","CLASSIFICATION_TYPE":"U","BSTAR":"-0.00000118000000","MEAN_MOTION_DDOT":"0.0000000000000","SEMIMAJOR_AXIS":"6925.346","PERIOD":"95.592","MEAN_MOTION_DOT":"-0.00000299","NORAD_CAT_ID":"47823","RA_OF_ASC_NODE":"107.7371","INCLINATION":"53.0543","REV_AT_EPOCH":"6386","MEAN_ELEMENT_THEORY":"SGP4","LAUNCH_DATE":"2021-03-11","OBJECT_NAME":"STARLINK-2408","TLE_LINE2":"2 47823  53.0543 107.7371 0001873  63.3924 296.7257 15.06400786 63866","APOAPSIS":"548.508","OBJECT_ID":"2021-018AN","MEAN_MOTION":"15.06400786","RCS_SIZE":"LARGE","SITE":"AFETR","DECAY_DATE":null,"EPOCH":"2022-04-28T06:28:36.671232","TLE_LINE1":"1 47823U 21018AN  22118.26986888 -.00000299  00000-0 -11800-5 0  9992","EPHEMERIS_TYPE":"0","COUNTRY_CODE":"US","OBJECT_TYPE":"PAYLOAD","MEAN_ANOMALY":"296.7257","PERIAPSIS":"545.914","TIME_SYSTEM":"UTC","FILE":"3420061"},{"EPHEMERIS_TYPE":"0","TLE_LINE1":"1 47824U 21018AP  22118.65688601  .00002178  00000-0  16508-3 0  9992","MEAN_ANOMALY":"307.7608","OBJECT_TYPE":"PAYLOAD","COUNTRY_CODE":"US","FILE":"3420257","TIME_SYSTEM":"UTC","PERIAPSIS":"545.772","NORAD_CAT_ID":"47824","MEAN_MOTION_DOT":"0.00002178","PERIOD":"95.592","SEMIMAJOR_AXIS":"6925.339","REV_AT_EPOCH":"6358","INCLINATION":"53.0548","RA_OF_ASC_NODE":"105.9951","GP_ID":"202225199","ELEMENT_SET_NO":"999","ECCENTRICITY":"0.00020680","ARG_OF_PERICENTER":"52.3568","MEAN_MOTION_DDOT":"0.0000000000000","BSTAR":"0.00016508000000","CLASSIFICATION_TYPE":"U","CENTER_NAME":"EARTH","REF_FRAME":"TEME","OBJECT_ID":"2021-018AP","APOAPSIS":"548.636","MEAN_MOTION":"15.06403088","EPOCH":"2022-04-28T15:45:54.951264","SITE":"AFETR","DECAY_DATE":null,"RCS_SIZE":"LARGE","LAUNCH_DATE":"2021-03-11","MEAN_ELEMENT_THEORY":"SGP4","TLE_LINE2":"2 47824  53.0548 105.9951 0002068  52.3568 307.7608 15.06403088 63585","OBJECT_NAME":"STARLINK-2409"},{"FILE":"3420061","TIME_SYSTEM":"UTC","PERIAPSIS":"545.900","COUNTRY_CODE":"US","MEAN_ANOMALY":"302.0062","OBJECT_TYPE":"PAYLOAD","EPHEMERIS_TYPE":"0","TLE_LINE1":"1 47825U 21018AQ  22118.34358516  .00003587  00000-0  25957-3 0  9991","RCS_SIZE":"LARGE","EPOCH":"2022-04-28T08:14:45.757824","DECAY_DATE":null,"SITE":"AFETR","MEAN_MOTION":"15.06406788","APOAPSIS":"548.486","OBJECT_ID":"2021-018AQ","OBJECT_NAME":"STARLINK-2410","TLE_LINE2":"2 47825  53.0532 107.4016 0001867  58.1109 302.0062 15.06406788 63873","LAUNCH_DATE":"2021-03-11","MEAN_ELEMENT_THEORY":"SGP4","REV_AT_EPOCH":"6387","INCLINATION":"53.0532","RA_OF_ASC_NODE":"107.4016","PERIOD":"95.592","SEMIMAJOR_AXIS":"6925.328","NORAD_CAT_ID":"47825","MEAN_MOTION_DOT":"0.00003587","CLASSIFICATION_TYPE":"U","CENTER_NAME":"EARTH","REF_FRAME":"TEME","MEAN_MOTION_DDOT":"0.0000000000000","BSTAR":"0.00025957000000","ARG_OF_PERICENTER":"58.1109","GP_ID":"202216823","ELEMENT_SET_NO":"999","ECCENTRICITY":"0.00018670"},{"TIME_SYSTEM":"UTC","PERIAPSIS":"545.601","FILE":"3420382","COUNTRY_CODE":"US","MEAN_ANOMALY":"317.5703","OBJECT_TYPE":"PAYLOAD","TLE_LINE1":"1 47826U 21018AR  22118.67162934  .00002822  00000-0  20822-3 0  9992","EPHEMERIS_TYPE":"0","OBJECT_NAME":"STARLINK-2411","TLE_LINE2":"2 47826  53.0540 105.9324 0002295  42.5464 317.5703 15.06407534 63586","MEAN_ELEMENT_THEORY":"SGP4","LAUNCH_DATE":"2021-03-11","RCS_SIZE":"LARGE","DECAY_DATE":null,"SITE":"AFETR","EPOCH":"2022-04-28T16:07:08.774976","APOAPSIS":"548.780","OBJECT_ID":"2021-018AR","MEAN_MOTION":"15.06407534","REF_FRAME":"TEME","CENTER_NAME":"EARTH","CLASSIFICATION_TYPE":"U","BSTAR":"0.00020822000000","MEAN_MOTION_DDOT":"0.0000000000000","ARG_OF_PERICENTER":"42.5464","ECCENTRICITY":"0.00022950","ELEMENT_SET_NO":"999","GP_ID":"202227859","INCLINATION":"53.0540","RA_OF_ASC_NODE":"105.9324","REV_AT_EPOCH":"6358","SEMIMAJOR_AXIS":"6925.325","PERIOD":"95.592","MEAN_MOTION_DOT":"0.00002822","NORAD_CAT_ID":"47826"},{"EPHEMERIS_TYPE":"0","TLE_LINE1":"1 47827U 21018AS  22118.63106583  .00000564  00000-0  56783-4 0  9994","COUNTRY_CODE":"US","MEAN_ANOMALY":"297.7488","OBJECT_TYPE":"PAYLOAD","PERIAPSIS":"546.021","TIME_SYSTEM":"UTC","FILE":"3420259","SEMIMAJOR_AXIS":"6925.353","PERIOD":"95.592","MEAN_MOTION_DOT":"0.00000564","NORAD_CAT_ID":"47827","INCLINATION":"53.0538","RA_OF_ASC_NODE":"96.1106","REV_AT_EPOCH":"6372","ARG_OF_PERICENTER":"62.3676","ECCENTRICITY":"0.00017280","ELEMENT_SET_NO":"999","GP_ID":"202225229","CENTER_NAME":"EARTH","REF_FRAME":"TEME","CLASSIFICATION_TYPE":"U","BSTAR":"0.00005678300000","MEAN_MOTION_DDOT":"0.0000000000000","APOAPSIS":"548.414","MEAN_MOTION":"15.06398631","OBJECT_ID":"2021-018AS","RCS_SIZE":"LARGE","SITE":"AFETR","DECAY_DATE":null,"EPOCH":"2022-04-28T15:08:44.087712","MEAN_ELEMENT_THEORY":"SGP4","LAUNCH_DATE":"2021-03-11","OBJECT_NAME":"STARLINK-2413","TLE_LINE2":"2 47827  53.0538  96.1106 0001728  62.3676 297.7488 15.06398631 63720"},{"CLASSIFICATION_TYPE":"U","REF_FRAME":"TEME","CENTER_NAME":"EARTH","MEAN_MOTION_DDOT":"0.0000000000000","BSTAR":"0.00001229900000","ARG_OF_PERICENTER":"45.3248","GP_ID":"202225724","ECCENTRICITY":"0.00021740","ELEMENT_SET_NO":"999","RA_OF_ASC_NODE":"115.7007","INCLINATION":"53.0553","REV_AT_EPOCH":"6345","PERIOD":"95.592","SEMIMAJOR_AXIS":"6925.341","NORAD_CAT_ID":"47828","MEAN_MOTION_DOT":"-0.00000099","OBJECT_NAME":"STARLINK-2415","TLE_LINE2":"2 47828  53.0553 115.7007 0002174  45.3248 314.7918 15.06402491 63456","LAUNCH_DATE":"2021-03-11","MEAN_ELEMENT_THEORY":"SGP4","RCS_SIZE":"LARGE","EPOCH":"2022-04-28T17:20:07.963296","DECAY_DATE":null,"SITE":"AFETR","OBJECT_ID":"2021-018AT","APOAPSIS":"548.711","MEAN_MOTION":"15.06402491","TLE_LINE1":"1 47828U 21018AT  22118.72231439 -.00000099  00000-0  12299-4 0  9992","EPHEMERIS_TYPE":"0","FILE":"3420259","TIME_SYSTEM":"UTC","PERIAPSIS":"545.700","COUNTRY_CODE":"US","OBJECT_TYPE":"PAYLOAD","MEAN_ANOMALY":"314.7918"}];
